$$SOE
2461295.500000000, A.D. 2026-Sep-12 00:00:00.0000, 1.958716216450673E+08, -5.786005831013885E+08, -5.541925774072707E+05,
2461302.500000000, A.D. 2026-Sep-19 00:00:00.0000, 2.043421853420107E+08, -5.763864844107274E+08, -5.800698837050498E+05,
2461309.500000000, A.D. 2026-Sep-26 00:00:00.0000, 2.127693958781319E+08, -5.740500699253402E+08, -6.058241183420122E+05,
2461316.500000000, A.D. 2026-Oct-03 00:00:00.0000, 2.211516130161263E+08, -5.715922407933626E+08, -6.314501743412912E+05,
2461323.500000000, A.D. 2026-Oct-10 00:00:00.0000, 2.294872163472359E+08, -5.690139157040527E+08, -6.569430316278934E+05,
2461330.500000000, A.D. 2026-Oct-17 00:00:00.0000, 2.377746052604437E+08, -5.663160304170244E+08, -6.822977516925633E+05,
2461337.500000000, A.D. 2026-Oct-24 00:00:00.0000, 2.460121988943086E+08, -5.634995373950807E+08, -7.075094798786938E+05,
2461344.500000000, A.D. 2026-Oct-31 00:00:00.0000, 2.541984361705067E+08, -5.605654056070482E+08, -7.325734696897566E+05,
2461351.500000000, A.D. 2026-Nov-07 00:00:00.0000, 2.623317762485723E+08, -5.575146204264287E+08, -7.574851540016234E+05,
2461358.500000000, A.D. 2026-Nov-14 00:00:00.0000, 2.704106996031497E+08, -5.543481827386417E+08, -7.822402088547647E+05,
2461365.500000000, A.D. 2026-Nov-21 00:00:00.0000, 2.784337079121594E+08, -5.510671065752054E+08, -8.068343876713812E+05,
2461372.500000000, A.D. 2026-Nov-28 00:00:00.0000, 2.863993217577022E+08, -5.476724182826251E+08, -8.312632799400985E+05,
2461379.500000000, A.D. 2026-Dec-05 00:00:00.0000, 2.943060797594655E+08, -5.441651578817431E+08, -8.555223797451556E+05,
2461386.500000000, A.D. 2026-Dec-12 00:00:00.0000, 3.021525393061184E+08, -5.405463795065031E+08, -8.796072247438729E+05,
2461393.500000000, A.D. 2026-Dec-19 00:00:00.0000, 3.099372769978374E+08, -5.368171509158995E+08, -9.035134316954017E+05,
2461400.500000000, A.D. 2026-Dec-26 00:00:00.0000, 3.176588886577674E+08, -5.329785529472601E+08, -9.272366861852109E+05,
2461407.500000000, A.D. 2027-Jan-02 00:00:00.0000, 3.253159891881956E+08, -5.290316791018709E+08, -9.507727272717357E+05,
2461414.500000000, A.D. 2027-Jan-09 00:00:00.0000, 3.329072123879431E+08, -5.249776352428946E+08, -9.741173360110223E+05,
2461421.500000000, A.D. 2027-Jan-16 00:00:00.0000, 3.404312107654076E+08, -5.208175393968629E+08, -9.972663303133845E+05,
2461428.500000000, A.D. 2027-Jan-23 00:00:00.0000, 3.478866553919936E+08, -5.165525216983703E+08, -1.020215573586881E+06,
2461435.500000000, A.D. 2027-Jan-30 00:00:00.0000, 3.552722359823403E+08, -5.121837245257040E+08, -1.042961018341303E+06,
2461442.500000000, A.D. 2027-Feb-06 00:00:00.0000, 3.625866616249079E+08, -5.077123024874842E+08, -1.065498796004117E+06,
2461449.500000000, A.D. 2027-Feb-13 00:00:00.0000, 3.698286617015200E+08, -5.031394210410452E+08, -1.087825211150259E+06,
2461456.500000000, A.D. 2027-Feb-20 00:00:00.0000, 3.769969846307699E+08, -4.984662545339378E+08, -1.109936488133103E+06,
2461463.500000000, A.D. 2027-Feb-27 00:00:00.0000, 3.840903958300925E+08, -4.936939868819698E+08, -1.131828661007792E+06,
2461470.500000000, A.D. 2027-Mar-06 00:00:00.0000, 3.911076779142504E+08, -4.888238129607669E+08, -1.153497726675272E+06,
2461477.500000000, A.D. 2027-Mar-13 00:00:00.0000, 3.980476315302058E+08, -4.838569386614456E+08, -1.174939747170329E+06,
2461484.500000000, A.D. 2027-Mar-20 00:00:00.0000, 4.049090756991637E+08, -4.787945804452541E+08, -1.196150865870744E+06,
2461491.500000000, A.D. 2027-Mar-27 00:00:00.0000, 4.116908478679323E+08, -4.736379649462475E+08, -1.217127301142424E+06,
2461498.500000000, A.D. 2027-Apr-03 00:00:00.0000, 4.183918038725465E+08, -4.683883286698027E+08, -1.237865340028107E+06,
2461505.500000000, A.D. 2027-Apr-10 00:00:00.0000, 4.250108178753081E+08, -4.630469177638925E+08, -1.258361335780531E+06,
2461512.500000000, A.D. 2027-Apr-17 00:00:00.0000, 4.315467822970746E+08, -4.576149878772177E+08, -1.278611712496877E+06,
2461519.500000000, A.D. 2027-Apr-24 00:00:00.0000, 4.379986078237489E+08, -4.520938041658714E+08, -1.298612989256620E+06,
2461526.500000000, A.D. 2027-May-01 00:00:00.0000, 4.443652237866153E+08, -4.464846414200444E+08, -1.318361849017113E+06,
2461533.500000000, A.D. 2027-May-08 00:00:00.0000, 4.506455792244229E+08, -4.407887835619093E+08, -1.337855219296306E+06,
2461540.500000000, A.D. 2027-May-15 00:00:00.0000, 4.568386431310923E+08, -4.350075215613679E+08, -1.357090149381578E+06,
2461547.500000000, A.D. 2027-May-22 00:00:00.0000, 4.629434023255172E+08, -4.291421523615847E+08, -1.376063552382082E+06,
2461554.500000000, A.D. 2027-May-29 00:00:00.0000, 4.689588602993942E+08, -4.231939802824379E+08, -1.394772239869326E+06,
2461561.500000000, A.D. 2027-Jun-05 00:00:00.0000, 4.748840379282100E+08, -4.171643177700300E+08, -1.413213074229985E+06,
2461568.500000000, A.D. 2027-Jun-12 00:00:00.0000, 4.807179740382225E+08, -4.110544850606674E+08, -1.431383019180804E+06,
2461575.500000000, A.D. 2027-Jun-19 00:00:00.0000, 4.864597254985381E+08, -4.048658096944758E+08, -1.449279134333730E+06,
2461582.500000000, A.D. 2027-Jun-26 00:00:00.0000, 4.921083671177197E+08, -3.985996261399626E+08, -1.466898560608596E+06,
2461589.500000000, A.D. 2027-Jul-03 00:00:00.0000, 4.976629914770672E+08, -3.922572755211479E+08, -1.484238507721037E+06,
2461596.500000000, A.D. 2027-Jul-10 00:00:00.0000, 5.031227087374077E+08, -3.858401054384443E+08, -1.501296246179700E+06,
2461603.500000000, A.D. 2027-Jul-17 00:00:00.0000, 5.084866464556773E+08, -3.793494699220145E+08, -1.518069110065222E+06,
2461610.500000000, A.D. 2027-Jul-24 00:00:00.0000, 5.137539495675893E+08, -3.727867295801707E+08, -1.534554529846340E+06,
2461617.500000000, A.D. 2027-Jul-31 00:00:00.0000, 5.189237809478073E+08, -3.661532517069396E+08, -1.550750113510370E+06,
2461624.500000000, A.D. 2027-Aug-07 00:00:00.0000, 5.239953223472167E+08, -3.594504091968744E+08, -1.566653663271204E+06,
2461631.500000000, A.D. 2027-Aug-14 00:00:00.0000, 5.289677734064984E+08, -3.526795785206546E+08, -1.582262937354162E+06,
2461638.500000000, A.D. 2027-Aug-21 00:00:00.0000, 5.338403493639340E+08, -3.458421401257321E+08, -1.597575488468662E+06,
2461645.500000000, A.D. 2027-Aug-28 00:00:00.0000, 5.386122808880931E+08, -3.389394800582712E+08, -1.612588795396507E+06,
2461652.500000000, A.D. 2027-Sep-04 00:00:00.0000, 5.432828148543812E+08, -3.319729903036099E+08, -1.627300374992445E+06,
2461659.500000000, A.D. 2027-Sep-11 00:00:00.0000, 5.478512146704621E+08, -3.249440685063908E+08, -1.641707800851569E+06,
2461666.500000000, A.D. 2027-Sep-18 00:00:00.0000, 5.523167602839905E+08, -3.178541177203474E+08, -1.655808694229379E+06,
2461673.500000000, A.D. 2027-Sep-25 00:00:00.0000, 5.566787481017412E+08, -3.107045462650767E+08, -1.669600714808688E+06,
2461680.500000000, A.D. 2027-Oct-02 00:00:00.0000, 5.609364908954332E+08, -3.034967676618691E+08, -1.683081556210265E+06,
2461687.500000000, A.D. 2027-Oct-09 00:00:00.0000, 5.650893177169361E+08, -2.962322006527282E+08, -1.696248948928475E+06,
2461694.500000000, A.D. 2027-Oct-16 00:00:00.0000, 5.691365738861830E+08, -2.889122693570555E+08, -1.709100681207418E+06,
2461701.500000000, A.D. 2027-Oct-23 00:00:00.0000, 5.730776213117255E+08, -2.815384035711789E+08, -1.721634662365198E+06,
2461708.500000000, A.D. 2027-Oct-30 00:00:00.0000, 5.769118395188442E+08, -2.741120385997576E+08, -1.733849013203382E+06,
2461715.500000000, A.D. 2027-Nov-06 00:00:00.0000, 5.806386262223953E+08, -2.666346134905289E+08, -1.745741984658986E+06,
2461722.500000000, A.D. 2027-Nov-13 00:00:00.0000, 5.842573954595057E+08, -2.591075697487614E+08, -1.757311692305803E+06,
2461729.500000000, A.D. 2027-Nov-20 00:00:00.0000, 5.877675761837609E+08, -2.515323527173186E+08, -1.768556111532822E+06,
2461736.500000000, A.D. 2027-Nov-27 00:00:00.0000, 5.911686129381368E+08, -2.439104126574576E+08, -1.779473239493579E+06,
2461743.500000000, A.D. 2027-Dec-04 00:00:00.0000, 5.944599665831809E+08, -2.362432046162048E+08, -1.790061163498387E+06,
2461750.500000000, A.D. 2027-Dec-11 00:00:00.0000, 5.976411145298420E+08, -2.285321880442043E+08, -1.800318064071760E+06,
2461757.500000000, A.D. 2027-Dec-18 00:00:00.0000, 6.007115507516940E+08, -2.207788265029606E+08, -1.810242205540210E+06,
2461764.500000000, A.D. 2027-Dec-25 00:00:00.0000, 6.036707857282742E+08, -2.129845874632650E+08, -1.819831928194538E+06,
2461771.500000000, A.D. 2028-Jan-01 00:00:00.0000, 6.065183463608381E+08, -2.051509421797400E+08, -1.829085644543976E+06,
$$EOE